Hameenlinna,e,3.42885,172.30683,308.56666,2.2400189,0.29398593,0.0799039,183.95570,11/5/1990,1950.0,12.64,0.33
Hamiltonia,e,3.22702,92.21674,70.57979,2.8456583,0.20531938,0.0146059,240.11053,11/5/1990,1950.0,12.30,0.25
Hamina,e,10.40302,121.04412,352.65599,2.3471060,0.27409747,0.1359231,272.42952,11/5/1990,1950.0,13.39,0.33
Hammonia,e,4.98794,163.05792,249.87882,2.9947441,0.19017985,0.0609777,78.31366,11/5/1990,1950.0,9.99,0.15
Handahl,e,5.12629,163.51898,135.62011,2.3456346,0.27435541,0.2188239,48.87415,11/5/1990,1950.0,14.30,0.25
Handel,e,4.62130,210.75577,257.58037,2.2394502,0.29409792,0.1318713,322.83790,11/5/1990,1950.0,13.40,0.25
Hanko,e,5.26135,173.87973,165.99691,2.5860569,0.23699924,0.2963226,306.28802,11/5/1990,1950.0,13.40,0.25
Hanna,e,4.72989,160.65375,188.74603,2.8067027,0.20960877,0.2140387,44.73614,11/5/1990,1950.0,12.40,0.25
Hannibal,e,13.94061,250.74915,143.45629,3.1393743,0.17719009,0.2104613,48.72024,11/5/1990,1950.0,10.40,0.25
Hannu Olavi,e,12.97401,53.81184,151.31315,3.0169511,0.18808392,0.1024800,41.78295,11/5/1990,1950.0,11.30,0.25
Hansa,e,21.32117,236.86579,210.66421,2.6431739,0.22935883,0.0461878,94.22245,11/5/1990,1950.0,8.71,0.47
Hanskya,e,14.02302,318.72095,336.02642,3.2061357,0.17168456,0.0588982,64.98869,11/5/1990,1950.0,9.79,0.15
Hapag,e,11.72733,203.75328,204.40957,2.4558746,0.25609128,0.2480785,187.81761,11/5/1990,1950.0,13.60,0.25
Hapke,e,7.56377,284.16732,209.94504,2.7566192,0.21534704,0.1706943,303.59824,11/5/1990,1950.0,13.00,0.25
Happelia,e,6.15185,29.29771,260.58405,2.7481510,0.21634317,0.1957404,329.14744,11/5/1990,1950.0,9.51,0.15
Harding,e,1.87958,64.52726,64.82254,3.0668538,0.18351200,0.1179348,103.88250,11/5/1990,1950.0,11.80,0.25
Haremari,e,16.44721,327.20322,87.39715,2.7680855,0.21401037,0.1459149,306.77060,11/5/1990,1950.0,11.60,0.25
Harimaya-Bashi,e,18.17497,56.06533,246.95666,3.2011201,0.17208821,0.0638503,308.69704,11/5/1990,1950.0,10.80,0.25
Harlansmith,e,4.05255,345.03310,111.71672,2.3546094,0.27278832,0.1178691,274.46100,11/5/1990,1950.0,13.20,0.25
Harmonia,e,4.25925,93.78550,268.26255,2.2672383,0.28870768,0.0466492,346.47352,11/5/1990,1950.0,7.14,0.31
Harriet,e,4.40608,27.05353,155.53280,2.2293431,0.29610021,0.1206721,190.98751,11/5/1990,1950.0,13.80,0.25
Harrington,e,4.92650,107.67887,223.86824,2.3938575,0.26610721,0.3063529,269.48219,11/5/1990,1950.0,13.87,0.02
Harris,e,14.90366,142.35061,32.09440,3.1209483,0.17876159,0.0682839,185.95846,11/5/1990,1950.0,11.70,0.43
Harrison,e,12.94811,154.55694,74.29913,2.6637560,0.22670568,0.1250087,146.57918,11/5/1990,1950.0,12.40,0.25
Hartbeespoortda,e,5.68717,120.20214,158.40350,2.4042763,0.26437934,0.1501594,95.21214,11/5/1990,1950.0,12.50,0.25
Hartmann,e,10.47110,142.21042,232.66622,3.0255738,0.18728045,0.2348452,313.00046,11/5/1990,1950.0,12.60,0.25
Hartmut,e,12.42322,278.69469,143.24072,2.6275932,0.23140188,0.1535698,38.46006,11/5/1990,1950.0,11.90,0.25
Harvard,e,4.37801,135.45656,199.85656,2.2018367,0.30166604,0.1654111,11.76521,11/5/1990,1950.0,11.55,0.25
Harvey,e,5.47925,146.04758,234.80301,2.2670260,0.28874823,0.1774866,118.53740,11/5/1990,1950.0,13.90,0.25
Harvill,e,4.15442,203.89138,201.48276,2.3441634,0.27461373,0.1447663,156.86002,11/5/1990,1950.0,13.61,0.25
Hasegawa,e,3.91713,153.91305,331.51678,2.4459349,0.25765391,0.1382541,164.23022,11/5/1990,1950.0,12.80,0.25
Hasek,e,16.53773,36.90680,162.38262,3.1594875,0.17550081,0.0277507,216.84437,11/5/1990,1950.0,11.50,0.25
Hatanaka,e,2.71968,285.52478,85.49270,2.7886608,0.21164623,0.1128326,239.00337,11/5/1990,1950.0,12.00,0.25
Hathor,e,5.85553,210.98678,39.78270,0.8439051,1.27134570,0.4499275,129.32592,11/5/1990,1950.0,20.20,0.25
Hatshepsut,e,4.08835,233.74420,290.92236,3.1679507,0.17479800,0.1189024,328.94563,11/5/1990,1950.0,12.20,0.25
Haupt,e,4.15657,85.56861,279.57241,2.3922408,0.26637701,0.2117765,132.90445,11/5/1990,1950.0,12.92,0.25
Havnia,e,8.05879,26.85348,32.11049,2.5783616,0.23806105,0.0434138,323.05327,11/5/1990,1950.0,8.95,0.10
Hawke,e,2.31695,58.39463,289.21783,2.2692910,0.28831604,0.0808236,336.69437,11/5/1990,1950.0,13.40,0.25
Haworth,e,1.93213,14.77641,67.02594,2.8839695,0.20124175,0.0433849,77.26030,11/5/1990,1950.0,11.70,0.25
Hay,e,12.73893,133.93484,354.63240,2.6022686,0.23478800,0.1997565,39.50609,11/5/1990,1950.0,12.11,0.01
Haydn,e,1.66013,184.98777,274.22289,2.9273005,0.19679004,0.0226178,73.22579,11/5/1990,1950.0,13.00,0.25
Hazel,e,9.00949,223.48675,284.45809,2.9359944,0.19591660,0.0892063,231.81753,11/5/1990,1950.0,12.10,0.25
Heard,e,3.99064,230.15869,343.94389,2.2158578,0.29880732,0.0844871,330.41611,11/5/1990,1950.0,13.75,0.43
Hebe,e,14.78668,138.34865,238.46453,2.4250114,0.26099573,0.2020269,253.78600,11/5/1990,1950.0,5.70,0.24
Hebei,e,2.08063,58.87686,210.04748,3.1449137,0.17672215,0.1707786,336.73505,11/5/1990,1950.0,11.31,0.15
Heckmann,e,2.74317,199.38472,57.49395,2.4349704,0.25939616,0.1640935,94.91147,11/5/1990,1950.0,11.56,0.15
Hecuba,e,4.28088,350.15311,176.24464,3.2372530,0.16921509,0.0563761,47.28719,11/5/1990,1950.0,8.27,0.25
Hedda,e,3.80336,28.80690,191.84629,2.2841307,0.28551086,0.0295087,232.03915,11/5/1990,1950.0,9.96,0.15
Hedera,e,6.05107,140.37205,216.35868,2.7177827,0.21997938,0.1550101,61.14941,11/5/1990,1950.0,10.71,0.40
Hedwig,e,10.94401,285.91356,0.79441,2.6486099,0.22865309,0.0752504,288.76327,11/5/1990,1950.0,8.71,0.15
Heidelberga,e,8.54180,344.78078,68.66345,3.1950329,0.17258024,0.1766517,191.66476,11/5/1990,1950.0,9.00,0.25
Heike,e,10.79398,155.42890,209.42249,3.0080833,0.18891623,0.1181517,203.17414,11/5/1990,1950.0,10.80,0.25
Heilongjiang,e,1.92149,324.18150,107.96443,2.1921163,0.30367475,0.0597669,213.03736,11/5/1990,1950.0,13.20,0.25
Heinemann,e,0.92081,16.87371,342.90622,3.1432230,0.17686475,0.1823927,127.77218,11/5/1990,1950.0,11.20,0.25
Heisei,e,8.49923,243.97662,87.99695,3.0279465,0.18706037,0.0899401,112.84129,11/5/1990,1950.0,11.70,0.25
Heiskanen,e,0.47148,150.63565,178.42112,3.1700729,0.17462250,0.2727325,219.32263,11/5/1990,1950.0,10.93,0.15
Hekate,e,6.40740,127.12052,183.16717,3.1095833,0.17974250,0.1540116,165.31877,11/5/1990,1950.0,7.79,0.25
Hekatostos,e,11.86922,84.81784,315.91866,2.6357014,0.23033490,0.1347395,180.13944,11/5/1990,1950.0,11.40,0.25
Hektor,e,18.22895,342.08762,179.15697,5.1834933,0.08351611,0.0248254,35.21488,11/5/1990,1950.0,7.47,0.15
Hel,e,10.69510,320.99928,249.64743,2.9967179,0.18999199,0.1999044,107.45482,11/5/1990,1950.0,9.59,0.15
Hela,e,15.28975,242.25122,91.40325,2.6139195,0.23321999,0.4094513,332.81456,11/5/1990,1950.0,11.99,0.40
Helena,e,10.17732,342.91825,346.91835,2.5844455,0.23722093,0.1404474,165.61942,11/5/1990,1950.0,8.45,0.50
Helenos,e,14.71379,188.51336,115.97741,5.2061251,0.08297212,0.0455945,131.63562,11/5/1990,1950.0,10.20,0.25
Helewalda,e,10.69884,142.31948,320.22287,2.9705425,0.19250873,0.0521637,128.45010,11/5/1990,1950.0,11.80,0.25
Helga,e,4.45003,116.88954,249.08038,3.6324863,0.14236331,0.0763928,298.79440,11/5/1990,1950.0,9.28,0.36
Helina,e,11.53792,100.57537,252.98781,3.0190745,0.18788553,0.1073966,106.96537,11/5/1990,1950.0,10.21,0.25
Helio,e,26.06312,264.17941,181.57479,3.2000065,0.17217805,0.1492472,59.42507,11/5/1990,1950.0,8.60,0.25
Helionape,e,5.41761,81.98459,231.20028,2.2253473,0.29689806,0.1691501,8.94358,11/5/1990,1950.0,12.56,0.25
Hella,e,4.80453,305.59352,3.21661,2.2514442,0.29175096,0.1699467,150.35545,11/5/1990,1950.0,13.80,0.25
Helma,e,5.41363,296.28995,48.08672,2.3928541,0.26627460,0.1633300,251.50512,11/5/1990,1950.0,13.05,0.25
Helsinki,e,12.74157,12.75165,268.25926,2.6388109,0.22992790,0.1535877,123.21450,11/5/1990,1950.0,11.72,0.15
Helwerthia,e,14.09238,185.64458,333.81917,2.6059293,0.23429344,0.0747551,5.95044,11/5/1990,1950.0,11.39,0.15
Henan,e,3.83127,117.80804,292.31824,2.6999736,0.22215945,0.0843233,260.44184,11/5/1990,1950.0,11.85,0.15
Hencke,e,12.21426,290.91411,110.28540,2.6220815,0.23213189,0.1647643,335.91872,11/5/1990,1950.0,12.20,0.25
Henderson,e,1.47114,296.97934,117.36313,2.2407526,0.29384155,0.0555936,99.52840,11/5/1990,1950.0,12.96,0.40
Hendrie,e,3.01213,63.44610,176.04407,2.8819890,0.20144922,0.0133717,337.33318,11/5/1990,1950.0,12.00,0.25
Henrietta,e,20.91162,196.73277,104.91343,3.3690500,0.15938333,0.2761877,109.78681,11/5/1990,1950.0,8.62,0.15
Henrika,e,7.10593,230.09212,35.24389,2.7151152,0.22030364,0.2028982,192.89492,11/5/1990,1950.0,11.63,0.15
Henry,e,8.73173,125.80377,92.48748,2.6192942,0.23250251,0.1898023,101.71230,11/5/1990,1950.0,12.04,0.15
Henyey,e,5.07290,258.11311,336.46587,2.2495073,0.29212786,0.1228015,255.32692,11/5/1990,1950.0,12.23,0.25
Hephaistos,e,11.77275,27.76914,208.35888,2.1683334,0.30868462,0.8331953,308.25428,11/5/1990,1950.0,14.00,0.25
Hera,e,5.42479,135.72342,189.57209,2.7014657,0.22197542,0.0813063,206.16079,11/5/1990,1950.0,7.59,0.11
Herald,e,10.16000,312.34332,17.24862,3.1115178,0.17957491,0.1592113,314.47860,11/5/1990,1950.0,12.50,0.25
Herba,e,15.08234,263.15663,99.21121,3.0038917,0.18931180,0.3202794,2.76372,11/5/1990,1950.0,11.45,0.15
Herberta,e,1.09710,214.62918,107.99289,2.9018271,0.19938697,0.0666219,71.94031,11/5/1990,1950.0,11.60,0.25
Herculina,e,16.35632,107.39628,74.87820,2.7726908,0.21347740,0.1762823,285.04090,11/5/1990,1950.0,5.78,0.25
Hercynia,e,12.64827,134.39125,275.32300,2.9875520,0.19086701,0.2461670,114.95739,11/5/1990,1950.0,9.51,0.25
Herero,e,5.66728,325.94703,5.17867,2.2502394,0.29198531,0.2479769,178.97364,11/5/1990,1950.0,13.60,0.25
Herge,e,3.19680,251.29539,12.82955,2.2512558,0.29178759,0.1503020,55.91233,11/5/1990,1950.0,12.60,0.25
Herget,e,8.11349,240.03897,130.50352,2.7880132,0.21171997,0.1749653,166.15839,11/5/1990,1950.0,12.20,0.25
Hergiani,e,0.96580,76.65219,315.13578,3.1110548,0.17961499,0.1803038,44.80083,11/5/1990,1950.0,12.80,0.25
Herluga,e,14.51120,197.22303,199.84077,2.6153585,0.23302753,0.1960468,272.10486,11/5/1990,1950.0,11.60,0.25
Hermentaria,e,8.75673,91.78992,290.00304,2.7960296,0.21081010,0.0994141,9.41728,11/5/1990,1950.0,7.42,0.25
Hermia,e,3.64840,234.93155,79.82167,2.2361389,0.29475141,0.1961113,114.14293,11/5/1990,1950.0,11.78,0.25
